1 27424U 02022A   10005.56938202 +.00000036 +00000-0 +17939-4 0 05297
2 27424 098.2026 309.4898 0000532 099.2484 260.8762 14.57113444408237